0 DELTA 1 DEB
1 07034U 73086AA  13282.01483118  .00000007  00000-0  35628-3 0  1671
2 07034 101.6477 300.3632 0017637 114.9719 272.8174 12.43445520810162
0 DELTA 1 DEB
1 07034U 73086AA  13284.03288361  .00000025  00000-0  48998-3 0  1683
2 07034 101.6472 302.3069 0017645 111.1424 306.4301 12.43445626810415
0 DELTA 1 DEB
1 07034U 73086AA  13286.93234053  .00000022  00000-0  46821-3 0  1694
2 07034 101.6466 305.0994 0017632 105.7187 325.4863 12.43446174810778
0 DELTA 1 DEB
1 07034U 73086AA  13288.94178734 -.00000000  00000-0  30744-3 0  1706
2 07034 101.6462 307.0345 0017570 102.0490 320.4352 12.43446461811020
0 DELTA 1 DEB
1 07034U 73086AA  13290.95392530 -.00000012  00000-0  22190-3 0  1712
2 07034 101.6462 308.9721 0017551 098.2945 327.5140 12.43446767811277
0 DELTA 1 DEB
1 07034U 73086AA  13293.04426211 -.00000011  00000-0  23220-3 0  1724
2 07034 101.6464 310.9850 0017521 094.3916 324.6443 12.43446903811532
0 DELTA 1 DEB
1 07034U 73086AA  13295.63120705  .00000002  00000-0  31840-3 0  1737
2 07034 101.6464 313.4760 0017483 089.4968 024.8453 12.43447012811856
